UNKNOWN                 
1 82311U          25342.39983804  .00001046  00000+0  15341-2 0  9991
2 82311  99.4342  36.4279 0108443 318.1362  41.1520 13.54533466549734
UNKNOWN                 
1 82363U          25342.35078306  .00000125  00000+0  29060-3 0  9997
2 82363  66.9356 203.3591 0456903 168.6512 192.5268 13.15605870289680
UNKNOWN                 
1 82369U          25337.30051655  .00000206  00000+0  16954-3 0  9998
2 82369  98.8991 352.6578 0083273   5.4067 354.7977 13.98158581555854
UNKNOWN                 
1 82381U          25342.57642409  .00029389  00000+0  38355-2 0  9991
2 82381  98.3925 207.1419 0007507 146.5619 213.6067 14.80433669510190
UNKNOWN                 
1 82402U          25342.51077057  .00009681  00000+0  70931-3 0  9990
2 82402  86.6662 157.4317 0007736 163.7616 196.3868 15.03406588453837
UNKNOWN                 
1 82410U          25339.32273370  .00000214  00000+0  28804-3 0  9995
2 82410  66.6579 356.8028 0056993  41.8292 318.7113 13.77237008585714
UNKNOWN                 
1 82432U          25340.76122057  .00003340  00000+0  70992-3 0  9992
2 82432  74.0066 351.9883 0055065 159.2335 201.1086 14.58526247482039
UNKNOWN                 
1 82448U          25342.62728350  .00009442  00000+0  68749-3 0  9990
2 82448  85.8736 201.5267 0006800 285.1011  74.9469 15.03641405436427
UNKNOWN                 
1 82453U          25342.15570275 -.00000003  00000+0  31854-3 0  9997
2 82453 102.1772 298.5281 0093315 215.6877 143.7923 12.39701749545495
UNKNOWN                 
1 82484U          25342.01950687  .00000308  00000+0  49883-3 0  9993
2 82484  99.3565   3.8883 0044597 206.4584 153.4277 13.55793213589991
UNKNOWN                 
1 82494U          25341.54802067  .00028853  00000+0  33143-2 0  9995
2 82494  74.0079  32.1643 0002720 217.5328 142.5662 14.85704970 84197
UNKNOWN                 
1 82500U          25340.83846275  .00005598  00000+0  25598-2 0  9999
2 82500  70.9689  16.3411 0114034 126.1243 235.0502 14.18449293618113
